[{"OBJECT_NAME":"STARLINK-31605","OBJECT_ID":"2024-060A","EPOCH":"2025-12-08T04:44:55.685472","MEAN_MOTION":15.27577717,"ECCENTRICITY":0.0001157,"INCLINATION":42.9979,"RA_OF_ASC_NODE":45.8886,"ARG_OF_PERICENTER":282.9405,"MEAN_ANOMALY":77.1317,"EPHEMERIS_TYPE":0,"CLASSIFICATION_TYPE":"U","NORAD_CAT_ID":59348,"ELEMENT_SET_NO":999,"REV_AT_EPOCH":9613,"BSTAR":3.8615109e-5,"MEAN_MOTION_DOT":8.01e-6,"MEAN_MOTION_DDOT":0},{"OBJECT_NAME":"STARLINK-31532","OBJECT_ID":"2024-060B","EPOCH":"2025-12-08T05:16:08.488416","MEAN_MOTION":15.27580403,"ECCENTRICITY":0.00015031,"INCLINATION":43.0029,"RA_OF_ASC_NODE":56.4374,"ARG_OF_PERICENTER":267.7284,"MEAN_ANOMALY":92.3396,"EPHEMERIS_TYPE":0,"CLASSIFICATION_TYPE":"U","NORAD_CAT_ID":59349,"ELEMENT_SET_NO":999,"REV_AT_EPOCH":9612,"BSTAR":8.811707e-5,"MEAN_MOTION_DOT":2.163e-5,"MEAN_MOTION_DDOT":0},{"OBJECT_NAME":"STARLINK-31593","OBJECT_ID":"2024-060C","EPOCH":"2025-12-08T06:07:44.553792","MEAN_MOTION":15.27585414,"ECCENTRICITY":7.233e-5,"INCLINATION":42.9985,"RA_OF_ASC_NODE":55.8411,"ARG_OF_PERICENTER":296.6536,"MEAN_ANOMALY":63.4241,"EPHEMERIS_TYPE":0,"CLASSIFICATION_TYPE":"U","NORAD_CAT_ID":59350,"ELEMENT_SET_NO":999,"REV_AT_EPOCH":9608,"BSTAR":-3.1466017e-5,"MEAN_MOTION_DOT":-1.128e-5,"MEAN_MOTION_DDOT":0},{"OBJECT_NAME":"STARLINK-31555","OBJECT_ID":"2024-060D","EPOCH":"2025-12-08T05:27:14.755104","MEAN_MOTION":15.27579659,"ECCENTRICITY":0.00012625,"INCLINATION":43.002,"RA_OF_ASC_NODE":56.491,"ARG_OF_PERICENTER":261.9882,"MEAN_ANOMALY":98.0826,"EPHEMERIS_TYPE":0,"CLASSIFICATION_TYPE":"U","NORAD_CAT_ID":59351,"ELEMENT_SET_NO":999,"REV_AT_EPOCH":9612,"BSTAR":-5.04349e-6,"MEAN_MOTION_DOT":-4.01e-6,"MEAN_MOTION_DDOT":0},{"OBJECT_NAME":"STARLINK-31561","OBJECT_ID":"2024-060E","EPOCH":"2025-12-08T06:04:02.734752","MEAN_MOTION":15.27583939,"ECCENTRICITY":0.00012473,"INCLINATION":43.0041,"RA_OF_ASC_NODE":55.8277,"ARG_OF_PERICENTER":275.8765,"MEAN_ANOMALY":84.1945,"EPHEMERIS_TYPE":0,"CLASSIFICATION_TYPE":"U","NORAD_CAT_ID":59352,"ELEMENT_SET_NO":999,"REV_AT_EPOCH":9608,"BSTAR":7.1496704e-5,"MEAN_MOTION_DOT":1.706e-5,"MEAN_MOTION_DDOT":0},{"OBJECT_NAME":"STARLINK-31413","OBJECT_ID":"2024-060F","EPOCH":"2025-12-08T04:50:15.085536","MEAN_MOTION":15.27567149,"ECCENTRICITY":7.504e-5,"INCLINATION":43.0038,"RA_OF_ASC_NODE":56.2977,"ARG_OF_PERICENTER":257.4642,"MEAN_ANOMALY":102.6126,"EPHEMERIS_TYPE":0,"CLASSIFICATION_TYPE":"U","NORAD_CAT_ID":59353,"ELEMENT_SET_NO":999,"REV_AT_EPOCH":9607,"BSTAR":-3.4438284e-5,"MEAN_MOTION_DOT":-1.209e-5,"MEAN_MOTION_DDOT":0},{"OBJECT_NAME":"STARLINK-31422","OBJECT_ID":"2024-060G","EPOCH":"2025-12-08T05:58:41.833056","MEAN_MOTION":15.27576227,"ECCENTRICITY":0.00010002,"INCLINATION":42.9992,"RA_OF_ASC_NODE":56.6586,"ARG_OF_PERICENTER":280.3385,"MEAN_ANOMALY":79.7354,"EPHEMERIS_TYPE":0,"CLASSIFICATION_TYPE":"U","NORAD_CAT_ID":59354,"ELEMENT_SET_NO":999,"REV_AT_EPOCH":9607,"BSTAR":-2.4562174e-5,"MEAN_MOTION_DOT":-9.38e-6,"MEAN_MOTION_DDOT":0},{"OBJECT_NAME":"STARLINK-31416","OBJECT_ID":"2024-060H","EPOCH":"2025-12-08T05:21:41.367744","MEAN_MOTION":15.27577203,"ECCENTRICITY":0.00011168,"INCLINATION":42.9994,"RA_OF_ASC_NODE":56.4629,"ARG_OF_PERICENTER":263.4968,"MEAN_ANOMALY":96.5757,"EPHEMERIS_TYPE":0,"CLASSIFICATION_TYPE":"U","NORAD_CAT_ID":59355,"ELEMENT_SET_NO":999,"REV_AT_EPOCH":9607,"BSTAR":5.46061e-7,"MEAN_MOTION_DOT":-2.47e-6,"MEAN_MOTION_DDOT":0},{"OBJECT_NAME":"STARLINK-31552","OBJECT_ID":"2024-060J","EPOCH":"2025-12-08T05:53:09.507552","MEAN_MOTION":15.27565142,"ECCENTRICITY":0.00012149,"INCLINATION":43.0009,"RA_OF_ASC_NODE":56.6457,"ARG_OF_PERICENTER":269.8147,"MEAN_ANOMALY":90.2566,"EPHEMERIS_TYPE":0,"CLASSIFICATION_TYPE":"U","NORAD_CAT_ID":59356,"ELEMENT_SET_NO":999,"REV_AT_EPOCH":9607,"BSTAR":-0.00012841045,"MEAN_MOTION_DOT":-3.792e-5,"MEAN_MOTION_DDOT":0},{"OBJECT_NAME":"STARLINK-31557","OBJECT_ID":"2024-060K","EPOCH":"2025-12-08T05:44:22.850304","MEAN_MOTION":15.27577386,"ECCENTRICITY":7.245e-5,"INCLINATION":42.999,"RA_OF_ASC_NODE":52.2274,"ARG_OF_PERICENTER":284.0029,"MEAN_ANOMALY":76.0742,"EPHEMERIS_TYPE":0,"CLASSIFICATION_TYPE":"U","NORAD_CAT_ID":59357,"ELEMENT_SET_NO":999,"REV_AT_EPOCH":9612,"BSTAR":1.372396e-5,"MEAN_MOTION_DOT":1.16e-6,"MEAN_MOTION_DDOT":0},{"OBJECT_NAME":"STARLINK-31559","OBJECT_ID":"2024-060L","EPOCH":"2025-12-08T05:01:20.457984","MEAN_MOTION":15.27572461,"ECCENTRICITY":0.00011991,"INCLINATION":43.0038,"RA_OF_ASC_NODE":56.3571,"ARG_OF_PERICENTER":259.3009,"MEAN_ANOMALY":100.7708,"EPHEMERIS_TYPE":0,"CLASSIFICATION_TYPE":"U","NORAD_CAT_ID":59358,"ELEMENT_SET_NO":999,"REV_AT_EPOCH":9607,"BSTAR":1.086955e-5,"MEAN_MOTION_DOT":3.7e-7,"MEAN_MOTION_DDOT":0},{"OBJECT_NAME":"STARLINK-31501","OBJECT_ID":"2024-060M","EPOCH":"2025-12-08T05:42:03.643488","MEAN_MOTION":15.27560248,"ECCENTRICITY":0.00012319,"INCLINATION":42.9951,"RA_OF_ASC_NODE":56.5698,"ARG_OF_PERICENTER":282.258,"MEAN_ANOMALY":77.8133,"EPHEMERIS_TYPE":0,"CLASSIFICATION_TYPE":"U","NORAD_CAT_ID":59359,"ELEMENT_SET_NO":999,"REV_AT_EPOCH":9607,"BSTAR":-4.9459611e-5,"MEAN_MOTION_DOT":-1.622e-5,"MEAN_MOTION_DDOT":0},{"OBJECT_NAME":"STARLINK-31549","OBJECT_ID":"2024-060N","EPOCH":"2025-12-08T06:18:52.090560","MEAN_MOTION":15.27559366,"ECCENTRICITY":0.00017908,"INCLINATION":43.0062,"RA_OF_ASC_NODE":55.8999,"ARG_OF_PERICENTER":273.3403,"MEAN_ANOMALY":86.7244,"EPHEMERIS_TYPE":0,"CLASSIFICATION_TYPE":"U","NORAD_CAT_ID":59360,"ELEMENT_SET_NO":999,"REV_AT_EPOCH":9608,"BSTAR":-0.0001586707,"MEAN_MOTION_DOT":-4.623e-5,"MEAN_MOTION_DDOT":0},{"OBJECT_NAME":"STARLINK-31560","OBJECT_ID":"2024-060P","EPOCH":"2025-12-08T05:32:47.551488","MEAN_MOTION":15.27577653,"ECCENTRICITY":8.13e-5,"INCLINATION":42.9969,"RA_OF_ASC_NODE":56.5188,"ARG_OF_PERICENTER":290.4616,"MEAN_ANOMALY":69.6148,"EPHEMERIS_TYPE":0,"CLASSIFICATION_TYPE":"U","NORAD_CAT_ID":59361,"ELEMENT_SET_NO":999,"REV_AT_EPOCH":9607,"BSTAR":-8.5848774e-5,"MEAN_MOTION_DOT":-2.623e-5,"MEAN_MOTION_DDOT":0},{"OBJECT_NAME":"STARLINK-31571","OBJECT_ID":"2024-060Q","EPOCH":"2025-12-08T05:36:29.987424","MEAN_MOTION":15.27583923,"ECCENTRICITY":6.034e-5,"INCLINATION":42.9983,"RA_OF_ASC_NODE":56.5378,"ARG_OF_PERICENTER":264.0317,"MEAN_ANOMALY":96.0466,"EPHEMERIS_TYPE":0,"CLASSIFICATION_TYPE":"U","NORAD_CAT_ID":59362,"ELEMENT_SET_NO":999,"REV_AT_EPOCH":9607,"BSTAR":-0.00015006626,"MEAN_MOTION_DOT":-4.389e-5,"MEAN_MOTION_DDOT":0},{"OBJECT_NAME":"STARLINK-31553","OBJECT_ID":"2024-060R","EPOCH":"2025-12-08T05:21:13.444992","MEAN_MOTION":15.27575465,"ECCENTRICITY":9.019e-5,"INCLINATION":43.0037,"RA_OF_ASC_NODE":49.5221,"ARG_OF_PERICENTER":262.552,"MEAN_ANOMALY":97.5229,"EPHEMERIS_TYPE":0,"CLASSIFICATION_TYPE":"U","NORAD_CAT_ID":59363,"ELEMENT_SET_NO":999,"REV_AT_EPOCH":9615,"BSTAR":2.0020192e-5,"MEAN_MOTION_DOT":2.89e-6,"MEAN_MOTION_DDOT":0}]
