STARLINK-31605          
1 59348U 24060A   25342.19786673  .00000801  00000+0  38615-4 0  9999
2 59348  42.9979  45.8886 0001157 282.9405  77.1317 15.27577717 96138
STARLINK-31532          
1 59349U 24060B   25342.21954269  .00002163  00000+0  88117-4 0  9996
2 59349  43.0029  56.4374 0001503 267.7284  92.3396 15.27580403 96129
STARLINK-31593          
1 59350U 24060C   25342.25537678 -.00001128  00000+0 -31466-4 0  9990
2 59350  42.9985  55.8411 0000723 296.6536  63.4241 15.27585414 96089
STARLINK-31555          
1 59351U 24060D   25342.22725411 -.00000401  00000+0 -50435-5 0  9993
2 59351  43.0020  56.4910 0001262 261.9882  98.0826 15.27579659 96123
STARLINK-31561          
1 59352U 24060E   25342.25280943  .00001706  00000+0  71497-4 0  9990
2 59352  43.0041  55.8277 0001247 275.8765  84.1945 15.27583939 96082
STARLINK-31413          
1 59353U 24060F   25342.20156349 -.00001209  00000+0 -34438-4 0  9992
2 59353  43.0038  56.2977 0000750 257.4642 102.6126 15.27567149 96070
STARLINK-31422          
1 59354U 24060G   25342.24909529 -.00000938  00000+0 -24562-4 0  9998
2 59354  42.9992  56.6586 0001000 280.3385  79.7354 15.27576227 96070
STARLINK-31416          
1 59355U 24060H   25342.22339546 -.00000247  00000+0  54606-6 0  9999
2 59355  42.9994  56.4629 0001116 263.4968  96.5757 15.27577203 96075
STARLINK-31552          
1 59356U 24060J   25342.24524893 -.00003792  00000+0 -12841-3 0  9994
2 59356  43.0009  56.6457 0001214 269.8147  90.2566 15.27565142 96072
STARLINK-31557          
1 59357U 24060K   25342.23915336  .00000116  00000+0  13724-4 0  9997
2 59357  42.9990  52.2274 0000724 284.0029  76.0742 15.27577386 96129
STARLINK-31559          
1 59358U 24060L   25342.20926456  .00000037  00000+0  10870-4 0  9991
2 59358  43.0038  56.3571 0001199 259.3009 100.7708 15.27572461 96070
STARLINK-31501          
1 59359U 24060M   25342.23754217 -.00001622  00000+0 -49460-4 0  9999
2 59359  42.9951  56.5698 0001231 282.2580  77.8133 15.27560248 96077
STARLINK-31549          
1 59360U 24060N   25342.26310290 -.00004623  00000+0 -15867-3 0  9990
2 59360  43.0062  55.8999 0001790 273.3403  86.7244 15.27559366 96087
STARLINK-31560          
1 59361U 24060P   25342.23110592 -.00002623  00000+0 -85849-4 0  9997
2 59361  42.9969  56.5188 0000813 290.4616  69.6148 15.27577653 96072
STARLINK-31571          
1 59362U 24060Q   25342.23368041 -.00004389  00000+0 -15007-3 0  9991
2 59362  42.9983  56.5378 0000603 264.0317  96.0466 15.27583923 96076
STARLINK-31553          
1 59363U 24060R   25342.22307228  .00000289  00000+0  20020-4 0  9996
2 59363  43.0037  49.5221 0000901 262.5520  97.5229 15.27575465 96152
